NORAD_CAT_ID,OBJECT_NAME,OBJECT_TYPE,EPOCH,MEAN_MOTION,ECCENTRICITY,INCLINATION,RA_OF_ASC_NODE,ARG_OF_PERICENTER,MEAN_ANOMALY,BSTAR,MEAN_MOTION_DOT,MEAN_MOTION_DDOT,TLE_LINE0,TLE_LINE1,TLE_LINE2,SEMIMAJOR_AXIS,PERIOD,APOGEE,PERIGEE,DECAYED
52851.0,STARLINK-3809,PAYLOAD,2022-07-04 22:00:00,15.73209599,0.000168,53.2149,318.7941,36.9565,133.238,0.00027324,0.00037917,0.0,0 STARLINK-3809,1 52851U 22062X   22185.91667824  .00037917  00000-0  27324-3 0  9992,2 52851  53.2149 318.7941 0001680  36.9565 133.2380 15.73209599  1303,6727.868,91.533,350.86300000000006,348.603,0.0
52851.0,STARLINK-3809,PAYLOAD,2022-07-05 14:00:01,15.73289071,0.0001541999999999,53.2151,315.4945,35.7177,312.3925,-0.0010187,-0.00141749,0.0,0 STARLINK-3809,1 52851U 22062X   22186.58334491 -.00141749  00000-0 -10187-2 0  9996,2 52851  53.2151 315.4945 0001542  35.7177 312.3925 15.73289071  3341,6727.641,91.528,350.5440000000001,348.469,0.0
52851.0,STARLINK-3809,PAYLOAD,2022-07-05 22:00:00,15.73194812,0.0001653,53.215,313.8452,30.48,46.6127,-0.00030083,-0.00042619,0.0,0 STARLINK-3809,1 52851U 22062X   22186.91667824 -.00042619  00000-0 -30083-3 0  9996,2 52851  53.2150 313.8452 0001653  30.4800  46.6127 15.73194812  3397,6727.91,91.533,350.88699999999994,348.663,0.0
52851.0,STARLINK-3809,PAYLOAD,2022-07-06 14:00:01,15.73137623,0.0001656,53.2155,310.5462,28.9516,225.8874,5.4869e-05,7.067e-05,0.0,0 STARLINK-3809,1 52851U 22062X   22187.58334491  .00007067  00000-0  54869-4 0  9996,2 52851  53.2155 310.5462 0001656  28.9516 225.8874 15.73137623  1302,6728.073,91.537,351.052,348.824,0.0
52851.0,STARLINK-3809,PAYLOAD,2022-07-06 22:00:00,15.73087507,0.0001764,53.2157,308.8971,29.3353,314.369,0.0016086,0.00230325,0.0,0 STARLINK-3809,1 52851U 22062X   22187.91667824  .00230325  00000-0  16086-2 0  9994,2 52851  53.2157 308.8971 0001764  29.3353 314.3690 15.73087507  3557,6728.215999999999,91.54,351.26800000000014,348.894,0.0
52851.0,STARLINK-3809,PAYLOAD,2022-07-07 04:10:06,15.73172803,0.00016,53.2152,307.6238,30.2203,329.8909,0.00023032,0.00031789,0.0,0 STARLINK-3809,1 52851U 22062X   22188.17369178  .00031789  00000-0  23032-3 0  9997,2 52851  53.2152 307.6238 0001600  30.2203 329.8909 15.73172803  3591,6727.973000000001,91.535,350.914,348.761,0.0
52851.0,STARLINK-3809,PAYLOAD,2022-07-07 13:19:00,15.73204318,0.0001764999999999,53.2153,305.7375,29.2661,330.8458,0.00028888,0.00040124,0.0,0 STARLINK-3809,1 52851U 22062X   22188.55486354  .00040124  00000-0  28888-3 0  9992,2 52851  53.2153 305.7375 0001765  29.2661 330.8458 15.73204318  3162,6727.8830000000025,91.533,350.935,348.56,0.0
52851.0,STARLINK-3809,PAYLOAD,2022-07-07 20:56:24,15.73240167,0.0001768,53.2152,304.1652,27.5174,332.594,0.00037944,0.00053062,0.0,0 STARLINK-3809,1 52851U 22062X   22188.87250007  .00053062  00000-0  37944-3 0  9999,2 52851  53.2152 304.1652 0001768  27.5174 332.5940 15.73240167  3218,6727.781,91.531,350.835,348.456,0.0
52851.0,STARLINK-3809,PAYLOAD,2022-07-08 06:00:02,15.73269448,0.0001729,53.2152,302.2962,31.546,307.9617,-0.00023164,-0.00033101,0.0,0 STARLINK-3809,1 52851U 22062X   22189.25002315 -.00033101  00000-0 -23164-3 0  9992,2 52851  53.2152 302.2962 0001729  31.5460 307.9617 15.73269448  3761,6727.696999999999,91.529,350.725,348.399,0.0
52851.0,STARLINK-3809,PAYLOAD,2022-07-08 14:00:01,15.73326532,0.0002072,53.2152,300.6483,29.476,39.0579,-0.00021887,-0.00031394,0.0,0 STARLINK-3809,1 52851U 22062X   22189.58334491 -.00031394  00000-0 -21887-3 0  9993,2 52851  53.2152 300.6483 0002072  29.4760  39.0579 15.73326532  1308,6727.534000000002,91.526,350.793,348.006,0.0
52851.0,STARLINK-3809,PAYLOAD,2022-07-08 22:00:01,15.73325118,0.0002052,53.2148,298.9979,25.1112,132.554,-0.00045335,-0.0006411,0.0,0 STARLINK-3809,1 52851U 22062X   22189.91668981 -.00064110  00000-0 -45335-3 0  9990,2 52851  53.2148 298.9979 0002052  25.1112 132.5540 15.73325118  3863,6727.538000000001,91.526,350.784,348.023,0.0
52851.0,STARLINK-3809,PAYLOAD,2022-07-09 06:00:00,15.73192313,0.0001917,53.215,297.3471,36.0093,210.381,-0.00017174,-0.00024646,0.0,0 STARLINK-3809,1 52851U 22062X   22190.25001157 -.00024646  00000-0 -17174-3 0  9995,2 52851  53.2150 297.3471 0001917  36.0093 210.3810 15.73192313  3925,6727.917,91.534,351.07199999999995,348.492,0.0
52851.0,STARLINK-3809,PAYLOAD,2022-07-09 14:00:01,15.73162269,0.0002078,53.215,295.6996,28.3198,306.9827,9.5539e-05,0.00012787,0.0,0 STARLINK-3809,1 52851U 22062X   22190.58334491  .00012787  00000-0  95539-4 0  9994,2 52851  53.2150 295.6996 0002078  28.3198 306.9827 15.73162269  1304,6728.003000000002,91.535,351.266,348.47,0.0
52851.0,STARLINK-3809,PAYLOAD,2022-07-09 20:00:01,15.73196032,0.0002075,53.215,294.4626,22.3918,289.5662,-0.00051978,-0.00072934,0.0,0 STARLINK-3809,1 52851U 22062X   22190.83334491 -.00072934  00000-0 -51978-3 0  9992,2 52851  53.2150 294.4626 0002075  22.3918 289.5662 15.73196032  1300,6727.906,91.533,351.168,348.375,0.0
52851.0,STARLINK-3809,PAYLOAD,2022-07-10 14:00:01,15.73328781,0.0002449,53.2156,290.7506,28.3155,213.918,0.00040719,0.00057238,0.0,0 STARLINK-3809,1 52851U 22062X   22191.58334491  .00057238  00000-0  40719-3 0  9994,2 52851  53.2156 290.7506 0002449  28.3155 213.9180 15.73328781  4134,6727.528,91.526,351.041,347.745,0.0
52851.0,STARLINK-3809,PAYLOAD,2022-07-10 22:00:00,15.73433098,0.0002422,53.2153,289.0997,26.3824,305.0473,0.00015202,0.00020981,0.0,0 STARLINK-3809,1 52851U 22062X   22191.91667824  .00020981  00000-0  15202-3 0  9994,2 52851  53.2153 289.0997 0002422  26.3824 305.0473 15.73433098  4189,6727.231,91.52,350.725,347.466,0.0
52851.0,STARLINK-3809,PAYLOAD,2022-07-11 06:00:00,15.73469218,0.0002294,53.2155,287.4484,28.4815,32.2166,0.00054429,0.00077371,0.0,0 STARLINK-3809,1 52851U 22062X   22192.25001157  .00077371  00000-0  54429-3 0  9992,2 52851  53.2155 287.4484 0002294  28.4815  32.2166 15.73469218  4231,6727.128000000002,91.518,350.536,347.45,0.0
52851.0,STARLINK-3809,PAYLOAD,2022-07-11 14:00:01,15.7307986,0.0002432,53.2154,285.8019,17.2464,131.9996,0.00028457,0.00039302,0.0,0 STARLINK-3809,1 52851U 22062X   22192.58334491  .00039302  00000-0  28457-3 0  9992,2 52851  53.2154 285.8019 0002432  17.2464 131.9996 15.73079860  4289,6728.238,91.54,351.73900000000015,348.466,0.0
52851.0,STARLINK-3809,PAYLOAD,2022-07-11 22:00:00,15.72812199,0.000219,53.2171,284.1527,17.0798,220.8612,0.0041875,0.00622385,0.0,0 STARLINK-3809,1 52851U 22062X   22192.91667824  .00622385  00000-0  41875-2 0  9995,2 52851  53.2171 284.1527 0002190  17.0798 220.8612 15.72812199  4342,6729.001,91.556,352.34,349.392,0.0
52851.0,STARLINK-3809,PAYLOAD,2022-07-12 06:00:00,15.73084681,0.0002433,53.2159,282.5014,25.4194,301.3475,0.00045245,0.00063047,0.0,0 STARLINK-3809,1 52851U 22062X   22193.25001157  .00063047  00000-0  45245-3 0  9994,2 52851  53.2159 282.5014 0002433  25.4194 301.3475 15.73084681  4399,6728.224,91.54,351.726,348.452,0.0
52851.0,STARLINK-3809,PAYLOAD,2022-07-12 14:00:01,15.73136769,0.0002751,53.2158,280.8544,23.7713,31.8439,0.00043745,0.00061061,0.0,0 STARLINK-3809,1 52851U 22062X   22193.58334491  .00061061  00000-0  43745-3 0  9997,2 52851  53.2158 280.8544 0002751  23.7713  31.8439 15.73136769  4444,6728.075,91.537,351.791,348.09,0.0
52851.0,STARLINK-3809,PAYLOAD,2022-07-12 22:00:00,15.73205646,0.000269,53.2154,279.2038,23.1694,121.3278,0.00017396,0.00023871,0.0,0 STARLINK-3809,1 52851U 22062X   22193.91667824  .00023871  00000-0  17396-3 0  9993,2 52851  53.2154 279.2038 0002690  23.1694 121.3278 15.73205646  1303,6727.879,91.533,351.55400000000014,347.934,0.0
52851.0,STARLINK-3809,PAYLOAD,2022-07-13 04:00:00,15.73209108,0.0002533,53.2153,277.9658,24.9038,96.3024,0.00066061,0.00093171,0.0,0 STARLINK-3809,1 52851U 22062X   22194.16667824  .00093171  00000-0  66061-3 0  9994,2 52851  53.2153 277.9658 0002533  24.9038  96.3024 15.73209108  4537,6727.869000000002,91.533,351.43800000000016,348.03,0.0
52851.0,STARLINK-3809,PAYLOAD,2022-07-13 14:00:01,15.73241319,0.0002712,53.2152,275.9063,18.0106,304.4105,-0.00052176,-0.00073357,0.0,0 STARLINK-3809,1 52851U 22062X   22194.58334491 -.00073357  00000-0 -52176-3 0  9999,2 52851  53.2152 275.9063 0002712  18.0106 304.4105 15.73241319  4604,6727.776999999999,91.531,351.467,347.8180000000001,0.0
52851.0,STARLINK-3809,PAYLOAD,2022-07-13 22:00:00,15.73210723,0.0002608,53.2151,274.2555,11.1046,40.2631,-0.00040602,-0.00057254,0.0,0 STARLINK-3809,1 52851U 22062X   22194.91667824 -.00057254  00000-0 -40602-3 0  9994,2 52851  53.2151 274.2555 0002608  11.1046  40.2631 15.73210723  1300,6727.865,91.533,351.4840000000001,347.975,0.0
52851.0,STARLINK-3809,PAYLOAD,2022-07-14 08:00:01,15.73165895,0.0002582,53.2153,272.1935,10.0537,242.4431,0.00018088,0.00024805,0.0,0 STARLINK-3809,1 52851U 22062X   22195.33334491  .00024805  00000-0  18088-3 0  9999,2 52851  53.2153 272.1935 0002582  10.0537 242.4431 15.73165895  4727,6727.9919999999975,91.535,351.595,348.12,0.0
52851.0,STARLINK-3809,PAYLOAD,2022-07-14 14:00:01,15.73152481,0.0002874,53.2153,270.958,10.5238,218.6362,0.00047674,0.00066692,0.0,0 STARLINK-3809,1 52851U 22062X   22195.58334491  .00066692  00000-0  47674-3 0  9999,2 52851  53.2153 270.9580 0002874  10.5238 218.6362 15.73152481  1302,6728.031,91.536,351.829,347.962,0.0
52851.0,STARLINK-3809,PAYLOAD,2022-07-14 22:00:00,15.73211937,0.000275,53.2147,269.307,11.0357,307.0293,0.00015795,0.00021617,0.0,0 STARLINK-3809,1 52851U 22062X   22195.91667824  .00021617  00000-0  15795-3 0  9992,2 52851  53.2147 269.3070 0002750  11.0357 307.0293 15.73211937  1300,6727.861,91.532,351.576,347.876,0.0
52851.0,STARLINK-3809,PAYLOAD,2022-07-15 14:00:01,15.73189918,0.0003039,53.2144,266.0095,15.333,120.6766,0.0005809,0.00081679,0.0,0 STARLINK-3809,1 52851U 22062X   22196.58334491  .00081679  00000-0  58090-3 0  9996,2 52851  53.2144 266.0095 0003039  15.3330 120.6766 15.73189918  4914,6727.924,91.534,351.834,347.744,0.0
